{
  "type": "FeatureCollection",
  "features": [
    {
      "type": "Feature",
      "properties": {
        "norad_id": 35142,
        "name": "FENGYUN 1C DEB",
        "group": "fengyun-1c-debris",
        "lat": 3.87977398633358,
        "lon": -20.266519784335088,
        "alt_km": 999.6827904041629,
        "timestamp": "2025-12-14T05:42:18.747791+00:00",
        "meta_object_name": "FENGYUN 1C DEB",
        "meta_object_id": "1999-025DLW",
        "meta_epoch": "2025-12-10T17:57:11.594304",
        "meta_mean_motion": 13.90505391,
        "meta_eccentricity": 0.01075768,
        "meta_inclination": 99.0447,
        "meta_ra_of_asc_node": 336.9569,
        "meta_arg_of_pericenter": 219.5001,
        "meta_mean_anomaly": 324.8218,
        "meta_ephemeris_type": 0,
        "meta_classification_type": "U",
        "meta_norad_cat_id": 35142,
        "meta_element_set_no": 999,
        "meta_rev_at_epoch": 85661,
        "meta_bstar": 0.00028188701,
        "meta_mean_motion_dot": 3.24e-06,
        "meta_mean_motion_ddot": 0,
        "tle_line1": "1 35142U 99025DLW 25344.74805086  .00000324  00000+0  28189-3 0  9995",
        "tle_line2": "2 35142  99.0447 336.9569 0107576 219.5001 324.8218 13.90505391856615"
      },
      "geometry": {
        "type": "Point",
        "coordinates": [
          -20.266519784335088,
          3.87977398633358
        ]
      }
    },
    {
      "type": "Feature",
      "properties": {
        "norad_id": 35144,
        "name": "FENGYUN 1C DEB",
        "group": "fengyun-1c-debris",
        "lat": -80.41346330298697,
        "lon": 168.68822965008815,
        "alt_km": 700.6016620960963,
        "timestamp": "2025-12-14T05:42:18.747801+00:00",
        "meta_object_name": "FENGYUN 1C DEB",
        "meta_object_id": "1999-025DLY",
        "meta_epoch": "2025-12-11T13:54:55.730016",
        "meta_mean_motion": 14.59153521,
        "meta_eccentricity": 0.0026594,
        "meta_inclination": 98.6992,
        "meta_ra_of_asc_node": 100.875,
        "meta_arg_of_pericenter": 5.3698,
        "meta_mean_anomaly": 354.778,
        "meta_ephemeris_type": 0,
        "meta_classification_type": "U",
        "meta_norad_cat_id": 35144,
        "meta_element_set_no": 999,
        "meta_rev_at_epoch": 65196,
        "meta_bstar": 0.0041915394,
        "meta_mean_motion_dot": 0.00019845,
        "meta_mean_motion_ddot": 0,
        "tle_line1": "1 35144U 99025DLY 25345.57981169  .00019845  00000+0  41915-2 0  9995",
        "tle_line2": "2 35144  98.6992 100.8750 0026594   5.3698 354.7780 14.59153521651967"
      },
      "geometry": {
        "type": "Point",
        "coordinates": [
          168.68822965008815,
          -80.41346330298697
        ]
      }
    },
    {
      "type": "Feature",
      "properties": {
        "norad_id": 35147,
        "name": "FENGYUN 1C DEB",
        "group": "fengyun-1c-debris",
        "lat": -5.802270095502569,
        "lon": -119.18771096431028,
        "alt_km": 631.795901101631,
        "timestamp": "2025-12-14T05:42:18.747811+00:00",
        "meta_object_name": "FENGYUN 1C DEB",
        "meta_object_id": "1999-025DMB",
        "meta_epoch": "2025-12-13T10:56:53.783520",
        "meta_mean_motion": 14.7433766,
        "meta_eccentricity": 0.00273439,
        "meta_inclination": 99.489,
        "meta_ra_of_asc_node": 60.8722,
        "meta_arg_of_pericenter": 196.8484,
        "meta_mean_anomaly": 163.1814,
        "meta_ephemeris_type": 0,
        "meta_classification_type": "U",
        "meta_norad_cat_id": 35147,
        "meta_element_set_no": 999,
        "meta_rev_at_epoch": 74315,
        "meta_bstar": 0.0047661501,
        "meta_mean_motion_dot": 0.0003184,
        "meta_mean_motion_ddot": 0,
        "tle_line1": "1 35147U 99025DMB 25347.45617805  .00031840  00000+0  47662-2 0  9994",
        "tle_line2": "2 35147  99.4890  60.8722 0027343 196.8484 163.1814 14.74337660743150"
      },
      "geometry": {
        "type": "Point",
        "coordinates": [
          -119.18771096431028,
          -5.802270095502569
        ]
      }
    },
    {
      "type": "Feature",
      "properties": {
        "norad_id": 35152,
        "name": "FENGYUN 1C DEB",
        "group": "fengyun-1c-debris",
        "lat": 65.74808388808188,
        "lon": 13.580007697008456,
        "alt_km": 993.8808061907803,
        "timestamp": "2025-12-14T05:42:18.747822+00:00",
        "meta_object_name": "FENGYUN 1C DEB",
        "meta_object_id": "1999-025DMG",
        "meta_epoch": "2025-12-09T06:32:50.767584",
        "meta_mean_motion": 13.76426124,
        "meta_eccentricity": 0.019481,
        "meta_inclination": 99.8191,
        "meta_ra_of_asc_node": 165.8523,
        "meta_arg_of_pericenter": 24.4192,
        "meta_mean_anomaly": 336.6036,
        "meta_ephemeris_type": 0,
        "meta_classification_type": "U",
        "meta_norad_cat_id": 35152,
        "meta_element_set_no": 999,
        "meta_rev_at_epoch": 62145,
        "meta_bstar": 0.0008876,
        "meta_mean_motion_dot": 9.5e-06,
        "meta_mean_motion_ddot": 0,
        "tle_line1": "1 35152U 99025DMG 25343.27280981  .00000950  00000+0  88760-3 0  9990",
        "tle_line2": "2 35152  99.8191 165.8523 0194810  24.4192 336.6036 13.76426124621451"
      },
      "geometry": {
        "type": "Point",
        "coordinates": [
          13.580007697008456,
          65.74808388808188
        ]
      }
    },
    {
      "type": "Feature",
      "properties": {
        "norad_id": 35153,
        "name": "FENGYUN 1C DEB",
        "group": "fengyun-1c-debris",
        "lat": 44.667362812341544,
        "lon": 69.09992394551486,
        "alt_km": 576.6821866730734,
        "timestamp": "2025-12-14T05:42:18.747832+00:00",
        "meta_object_name": "FENGYUN 1C DEB",
        "meta_object_id": "1999-025DMH",
        "meta_epoch": "2025-12-13T11:11:19.290336",
        "meta_mean_motion": 14.73743597,
        "meta_eccentricity": 0.01712095,
        "meta_inclination": 98.9023,
        "meta_ra_of_asc_node": 239.3405,
        "meta_arg_of_pericenter": 80.9224,
        "meta_mean_anomaly": 281.131,
        "meta_ephemeris_type": 0,
        "meta_classification_type": "U",
        "meta_norad_cat_id": 35153,
        "meta_element_set_no": 999,
        "meta_rev_at_epoch": 97228,
        "meta_bstar": 0.00060411508,
        "meta_mean_motion_dot": 4.926e-05,
        "meta_mean_motion_ddot": 0,
        "tle_line1": "1 35153U 99025DMH 25347.46619549  .00004926  00000+0  60412-3 0  9993",
        "tle_line2": "2 35153  98.9023 239.3405 0171209  80.9224 281.1310 14.73743597972285"
      },
      "geometry": {
        "type": "Point",
        "coordinates": [
          69.09992394551486,
          44.667362812341544
        ]
      }
    },
    {
      "type": "Feature",
      "properties": {
        "norad_id": 35154,
        "name": "FENGYUN 1C DEB",
        "group": "fengyun-1c-debris",
        "lat": 34.834521069260234,
        "lon": -63.552786053365196,
        "alt_km": 860.7823847754989,
        "timestamp": "2025-12-14T05:42:18.747842+00:00",
        "meta_object_name": "FENGYUN 1C DEB",
        "meta_object_id": "1999-025DMJ",
        "meta_epoch": "2025-12-13T13:48:37.186560",
        "meta_mean_motion": 14.18899673,
        "meta_eccentricity": 0.01793001,
        "meta_inclination": 99.4215,
        "meta_ra_of_asc_node": 109.1082,
        "meta_arg_of_pericenter": 40.1102,
        "meta_mean_anomaly": 321.3151,
        "meta_ephemeris_type": 0,
        "meta_classification_type": "U",
        "meta_norad_cat_id": 35154,
        "meta_element_set_no": 999,
        "meta_rev_at_epoch": 64589,
        "meta_bstar": 0.00040128256,
        "meta_mean_motion_dot": 9.31e-06,
        "meta_mean_motion_ddot": 0,
        "tle_line1": "1 35154U 99025DMJ 25347.57543040  .00000931  00000+0  40128-3 0  9992",
        "tle_line2": "2 35154  99.4215 109.1082 0179300  40.1102 321.3151 14.18899673645893"
      },
      "geometry": {
        "type": "Point",
        "coordinates": [
          -63.552786053365196,
          34.834521069260234
        ]
      }
    },
    {
      "type": "Feature",
      "properties": {
        "norad_id": 35155,
        "name": "FENGYUN 1C DEB",
        "group": "fengyun-1c-debris",
        "lat": -80.17215658097743,
        "lon": 120.14644953515892,
        "alt_km": 853.1255455161081,
        "timestamp": "2025-12-14T05:42:18.747852+00:00",
        "meta_object_name": "FENGYUN 1C DEB",
        "meta_object_id": "1999-025DMK",
        "meta_epoch": "2025-12-13T11:32:29.448096",
        "meta_mean_motion": 14.19285709,
        "meta_eccentricity": 0.00260991,
        "meta_inclination": 98.5012,
        "meta_ra_of_asc_node": 359.121,
        "meta_arg_of_pericenter": 70.7543,
        "meta_mean_anomaly": 289.6454,
        "meta_ephemeris_type": 0,
        "meta_classification_type": "U",
        "meta_norad_cat_id": 35155,
        "meta_element_set_no": 999,
        "meta_rev_at_epoch": 72724,
        "meta_bstar": 0.00090034288,
        "meta_mean_motion_dot": 1.854e-05,
        "meta_mean_motion_ddot": 0,
        "tle_line1": "1 35155U 99025DMK 25347.48089639  .00001854  00000+0  90034-3 0  9998",
        "tle_line2": "2 35155  98.5012 359.1210 0026099  70.7543 289.6454 14.19285709727245"
      },
      "geometry": {
        "type": "Point",
        "coordinates": [
          120.14644953515892,
          -80.17215658097743
        ]
      }
    }
  ]
}